{
  "type": "FeatureCollection",
  "features": [
    {
      "type": "Feature",
      "properties": {
        "norad_id": 40362,
        "name": "YAOGAN-26",
        "group": "resource",
        "lat": -62.46776435229836,
        "lon": 150.24070327806302,
        "alt_km": 460.2412004141879,
        "timestamp": "2025-12-09T04:51:47.164716+00:00",
        "meta_object_name": "YAOGAN-26",
        "meta_object_id": "2014-088A",
        "meta_epoch": "2025-12-08T21:34:04.230048",
        "meta_mean_motion": 15.39092981,
        "meta_eccentricity": 0.0006867,
        "meta_inclination": 97.0642,
        "meta_ra_of_asc_node": 343.7099,
        "meta_arg_of_pericenter": 39.9249,
        "meta_mean_anomaly": 320.2501,
        "meta_ephemeris_type": 0,
        "meta_classification_type": "U",
        "meta_norad_cat_id": 40362,
        "meta_element_set_no": 999,
        "meta_rev_at_epoch": 60835,
        "meta_bstar": 0.00068113,
        "meta_mean_motion_dot": 0.00026379,
        "meta_mean_motion_ddot": 0,
        "tle_line1": "1 40362U 14088A   25342.89866007  .00026379  00000+0  68113-3 0  9994",
        "tle_line2": "2 40362  97.0642 343.7099 0006867  39.9249 320.2501 15.39092981608355"
      },
      "geometry": {
        "type": "Point",
        "coordinates": [
          150.24070327806302,
          -62.46776435229836
        ]
      }
    },
    {
      "type": "Feature",
      "properties": {
        "norad_id": 40376,
        "name": "SMAP",
        "group": "resource",
        "lat": 16.03956123488544,
        "lon": -14.377578265395762,
        "alt_km": 682.8173414684834,
        "timestamp": "2025-12-09T04:51:47.164726+00:00",
        "meta_object_name": "SMAP",
        "meta_object_id": "2015-003A",
        "meta_epoch": "2025-12-08T18:56:34.370016",
        "meta_mean_motion": 14.63338183,
        "meta_eccentricity": 0.0001208,
        "meta_inclination": 98.129,
        "meta_ra_of_asc_node": 347.5701,
        "meta_arg_of_pericenter": 88.2952,
        "meta_mean_anomaly": 271.8388,
        "meta_ephemeris_type": 0,
        "meta_classification_type": "U",
        "meta_norad_cat_id": 40376,
        "meta_element_set_no": 999,
        "meta_rev_at_epoch": 57977,
        "meta_bstar": 0.00023325,
        "meta_mean_motion_dot": 1.158e-05,
        "meta_mean_motion_ddot": 0,
        "tle_line1": "1 40376U 15003A   25342.78928669  .00001158  00000+0  23325-3 0  9992",
        "tle_line2": "2 40376  98.1290 347.5701 0001208  88.2952 271.8388 14.63338183579775"
      },
      "geometry": {
        "type": "Point",
        "coordinates": [
          -14.377578265395762,
          16.03956123488544
        ]
      }
    },
    {
      "type": "Feature",
      "properties": {
        "norad_id": 40536,
        "name": "KOMPSAT-3A",
        "group": "resource",
        "lat": 54.62393592551612,
        "lon": 148.30882375495534,
        "alt_km": 426.91566479362064,
        "timestamp": "2025-12-09T04:51:47.164736+00:00",
        "meta_object_name": "KOMPSAT-3A",
        "meta_object_id": "2015-014A",
        "meta_epoch": "2025-12-08T20:32:49.452288",
        "meta_mean_motion": 15.43729997,
        "meta_eccentricity": 0.000447,
        "meta_inclination": 97.679,
        "meta_ra_of_asc_node": 316.9887,
        "meta_arg_of_pericenter": 134.6938,
        "meta_mean_anomaly": 225.4674,
        "meta_ephemeris_type": 0,
        "meta_classification_type": "U",
        "meta_norad_cat_id": 40536,
        "meta_element_set_no": 999,
        "meta_rev_at_epoch": 59235,
        "meta_bstar": 0.00060312,
        "meta_mean_motion_dot": 0.00027216,
        "meta_mean_motion_ddot": 0,
        "tle_line1": "1 40536U 15014A   25342.85612792  .00027216  00000+0  60312-3 0  9997",
        "tle_line2": "2 40536  97.6790 316.9887 0004470 134.6938 225.4674 15.43729997592359"
      },
      "geometry": {
        "type": "Point",
        "coordinates": [
          148.30882375495534,
          54.62393592551612
        ]
      }
    },
    {
      "type": "Feature",
      "properties": {
        "norad_id": 40697,
        "name": "SENTINEL-2A",
        "group": "resource",
        "lat": -60.76275324030437,
        "lon": 71.41395866265958,
        "alt_km": 796.7498488729925,
        "timestamp": "2025-12-09T04:51:47.164746+00:00",
        "meta_object_name": "SENTINEL-2A",
        "meta_object_id": "2015-028A",
        "meta_epoch": "2025-12-08T20:45:38.164320",
        "meta_mean_motion": 14.30824695,
        "meta_eccentricity": 0.0001043,
        "meta_inclination": 98.5696,
        "meta_ra_of_asc_node": 55.4529,
        "meta_arg_of_pericenter": 88.8575,
        "meta_mean_anomaly": 271.2727,
        "meta_ephemeris_type": 0,
        "meta_classification_type": "U",
        "meta_norad_cat_id": 40697,
        "meta_element_set_no": 999,
        "meta_rev_at_epoch": 54651,
        "meta_bstar": 7.4828e-05,
        "meta_mean_motion_dot": 1.53e-06,
        "meta_mean_motion_ddot": 0,
        "tle_line1": "1 40697U 15028A   25342.86502505  .00000153  00000+0  74828-4 0  9990",
        "tle_line2": "2 40697  98.5696  55.4529 0001043  88.8575 271.2727 14.30824695546511"
      },
      "geometry": {
        "type": "Point",
        "coordinates": [
          71.41395866265958,
          -60.76275324030437
        ]
      }
    },
    {
      "type": "Feature",
      "properties": {
        "norad_id": 40701,
        "name": "GAOFEN-8",
        "group": "resource",
        "lat": 55.53349239042475,
        "lon": 149.81683686859856,
        "alt_km": 446.1716739886333,
        "timestamp": "2025-12-09T04:51:47.164757+00:00",
        "meta_object_name": "GAOFEN-8",
        "meta_object_id": "2015-030A",
        "meta_epoch": "2025-12-08T20:48:48.271104",
        "meta_mean_motion": 15.38355292,
        "meta_eccentricity": 0.0011439,
        "meta_inclination": 97.6909,
        "meta_ra_of_asc_node": 160.8196,
        "meta_arg_of_pericenter": 151.2568,
        "meta_mean_anomaly": 208.9309,
        "meta_ephemeris_type": 0,
        "meta_classification_type": "U",
        "meta_norad_cat_id": 40701,
        "meta_element_set_no": 999,
        "meta_rev_at_epoch": 58211,
        "meta_bstar": 0.00065388,
        "meta_mean_motion_dot": 0.00024741,
        "meta_mean_motion_ddot": 0,
        "tle_line1": "1 40701U 15030A   25342.86722536  .00024741  00000+0  65388-3 0  9996",
        "tle_line2": "2 40701  97.6909 160.8196 0011439 151.2568 208.9309 15.38355292582112"
      },
      "geometry": {
        "type": "Point",
        "coordinates": [
          149.81683686859856,
          55.53349239042475
        ]
      }
    },
    {
      "type": "Feature",
      "properties": {
        "norad_id": 40718,
        "name": "CARBONITE 1 (CBNT-1)",
        "group": "resource",
        "lat": -23.36471867480945,
        "lon": 167.7271022485521,
        "alt_km": 634.2501248686594,
        "timestamp": "2025-12-09T04:51:47.164767+00:00",
        "meta_object_name": "CARBONITE 1 (CBNT-1)",
        "meta_object_id": "2015-032D",
        "meta_epoch": "2025-12-08T19:15:05.922432",
        "meta_mean_motion": 14.82717757,
        "meta_eccentricity": 0.0014175,
        "meta_inclination": 97.6404,
        "meta_ra_of_asc_node": 164.0199,
        "meta_arg_of_pericenter": 194.0867,
        "meta_mean_anomaly": 165.9954,
        "meta_ephemeris_type": 0,
        "meta_classification_type": "U",
        "meta_norad_cat_id": 40718,
        "meta_element_set_no": 999,
        "meta_rev_at_epoch": 56112,
        "meta_bstar": 0.0006185,
        "meta_mean_motion_dot": 4.952e-05,
        "meta_mean_motion_ddot": 0,
        "tle_line1": "1 40718U 15032D   25342.80215188  .00004952  00000+0  61850-3 0  9992",
        "tle_line2": "2 40718  97.6404 164.0199 0014175 194.0867 165.9954 14.82717757561128"
      },
      "geometry": {
        "type": "Point",
        "coordinates": [
          167.7271022485521,
          -23.36471867480945
        ]
      }
    },
    {
      "type": "Feature",
      "properties": {
        "norad_id": 40878,
        "name": "YAOGAN-27",
        "group": "resource",
        "lat": -6.366066370968916,
        "lon": -25.878605837378228,
        "alt_km": 1200.2479975678134,
        "timestamp": "2025-12-09T04:51:47.164777+00:00",
        "meta_object_name": "YAOGAN-27",
        "meta_object_id": "2015-040A",
        "meta_epoch": "2025-12-08T21:35:52.038240",
        "meta_mean_motion": 13.16058155,
        "meta_eccentricity": 0.0007687,
        "meta_inclination": 100.1003,
        "meta_ra_of_asc_node": 332.693,
        "meta_arg_of_pericenter": 296.2827,
        "meta_mean_anomaly": 63.7497,
        "meta_ephemeris_type": 0,
        "meta_classification_type": "U",
        "meta_norad_cat_id": 40878,
        "meta_element_set_no": 999,
        "meta_rev_at_epoch": 49263,
        "meta_bstar": -0.00094724,
        "meta_mean_motion_dot": -4.02e-06,
        "meta_mean_motion_ddot": 0,
        "tle_line1": "1 40878U 15040A   25342.89990785 -.00000402  00000+0 -94724-3 0  9994",
        "tle_line2": "2 40878 100.1003 332.6930 0007687 296.2827  63.7497 13.16058155492639"
      },
      "geometry": {
        "type": "Point",
        "coordinates": [
          -25.878605837378228,
          -6.366066370968916
        ]
      }
    }
  ]
}